{
  "type": "FeatureCollection",
  "features": [
    {
      "type": "Feature",
      "properties": {
        "norad_id": 66461,
        "name": "STARLINK-35132",
        "group": "last-30-days",
        "lat": -23.79257381990915,
        "lon": -79.5586895806992,
        "alt_km": 445.8750701616573,
        "timestamp": "2025-12-12T14:39:16.770499+00:00",
        "meta_object_name": "STARLINK-35132",
        "meta_object_id": "2025-262F",
        "meta_epoch": "2025-12-12T06:00:00.999648",
        "meta_mean_motion": 15.4065013,
        "meta_eccentricity": 0.00016233,
        "meta_inclination": 43.0004,
        "meta_ra_of_asc_node": 74.2818,
        "meta_arg_of_pericenter": 282.3995,
        "meta_mean_anomaly": 91.4064,
        "meta_ephemeris_type": 0,
        "meta_classification_type": "U",
        "meta_norad_cat_id": 66461,
        "meta_element_set_no": 999,
        "meta_rev_at_epoch": 555,
        "meta_bstar": 0.0019731087,
        "meta_mean_motion_dot": 0.00082881,
        "meta_mean_motion_ddot": 0,
        "tle_line1": "1 66461U 25262F   25346.25001157  .00082881  00000+0  19731-2 0  9990",
        "tle_line2": "2 66461  43.0004  74.2818 0001623 282.3995  91.4064 15.40650130  5550"
      },
      "geometry": {
        "type": "Point",
        "coordinates": [
          -79.5586895806992,
          -23.79257381990915
        ]
      }
    },
    {
      "type": "Feature",
      "properties": {
        "norad_id": 66462,
        "name": "STARLINK-35499",
        "group": "last-30-days",
        "lat": -30.803319533850345,
        "lon": -68.05154477562512,
        "alt_km": 446.0078307744461,
        "timestamp": "2025-12-12T14:39:16.770510+00:00",
        "meta_object_name": "STARLINK-35499",
        "meta_object_id": "2025-262G",
        "meta_epoch": "2025-12-12T06:00:00.999648",
        "meta_mean_motion": 15.40626232,
        "meta_eccentricity": 0.00013323,
        "meta_inclination": 43.0004,
        "meta_ra_of_asc_node": 74.2507,
        "meta_arg_of_pericenter": 249.0653,
        "meta_mean_anomaly": 137.1807,
        "meta_ephemeris_type": 0,
        "meta_classification_type": "U",
        "meta_norad_cat_id": 66462,
        "meta_element_set_no": 999,
        "meta_rev_at_epoch": 555,
        "meta_bstar": 0.0019974521,
        "meta_mean_motion_dot": 0.00083851,
        "meta_mean_motion_ddot": 0,
        "tle_line1": "1 66462U 25262G   25346.25001157  .00083851  00000+0  19975-2 0  9999",
        "tle_line2": "2 66462  43.0004  74.2507 0001332 249.0653 137.1807 15.40626232  5553"
      },
      "geometry": {
        "type": "Point",
        "coordinates": [
          -68.05154477562512,
          -30.803319533850345
        ]
      }
    },
    {
      "type": "Feature",
      "properties": {
        "norad_id": 66463,
        "name": "STARLINK-35463",
        "group": "last-30-days",
        "lat": -40.84123924166924,
        "lon": -39.82046529927815,
        "alt_km": 446.3255140376132,
        "timestamp": "2025-12-12T14:39:16.770520+00:00",
        "meta_object_name": "STARLINK-35463",
        "meta_object_id": "2025-262H",
        "meta_epoch": "2025-12-12T08:00:13.999968",
        "meta_mean_motion": 15.40801985,
        "meta_eccentricity": 0.00014278,
        "meta_inclination": 43.0008,
        "meta_ra_of_asc_node": 73.7096,
        "meta_arg_of_pericenter": 254.3693,
        "meta_mean_anomaly": 260.2859,
        "meta_ephemeris_type": 0,
        "meta_classification_type": "U",
        "meta_norad_cat_id": 66463,
        "meta_element_set_no": 999,
        "meta_rev_at_epoch": 557,
        "meta_bstar": -0.0042322569,
        "meta_mean_motion_dot": -0.0017372,
        "meta_mean_motion_ddot": 0,
        "tle_line1": "1 66463U 25262H   25346.33349537 -.00173720  00000+0 -42323-2 0  9996",
        "tle_line2": "2 66463  43.0008  73.7096 0001427 254.3693 260.2859 15.40801985  5570"
      },
      "geometry": {
        "type": "Point",
        "coordinates": [
          -39.82046529927815,
          -40.84123924166924
        ]
      }
    },
    {
      "type": "Feature",
      "properties": {
        "norad_id": 66464,
        "name": "STARLINK-35435",
        "group": "last-30-days",
        "lat": -36.66466160078178,
        "lon": -54.83807146920023,
        "alt_km": 446.04113332063935,
        "timestamp": "2025-12-12T14:39:16.770533+00:00",
        "meta_object_name": "STARLINK-35435",
        "meta_object_id": "2025-262J",
        "meta_epoch": "2025-12-12T08:00:13.999968",
        "meta_mean_motion": 15.40662699,
        "meta_eccentricity": 0.00017804,
        "meta_inclination": 43.0007,
        "meta_ra_of_asc_node": 73.7399,
        "meta_arg_of_pericenter": 259.1892,
        "meta_mean_anomaly": 243.0969,
        "meta_ephemeris_type": 0,
        "meta_classification_type": "U",
        "meta_norad_cat_id": 66464,
        "meta_element_set_no": 999,
        "meta_rev_at_epoch": 557,
        "meta_bstar": 0.00095177292,
        "meta_mean_motion_dot": 0.00039612,
        "meta_mean_motion_ddot": 0,
        "tle_line1": "1 66464U 25262J   25346.33349537  .00039612  00000+0  95177-3 0  9992",
        "tle_line2": "2 66464  43.0007  73.7399 0001780 259.1892 243.0969 15.40662699  5570"
      },
      "geometry": {
        "type": "Point",
        "coordinates": [
          -54.83807146920023,
          -36.66466160078178
        ]
      }
    },
    {
      "type": "Feature",
      "properties": {
        "norad_id": 66465,
        "name": "STARLINK-35448",
        "group": "last-30-days",
        "lat": -42.40768296173132,
        "lon": -6.51112299654012,
        "alt_km": 446.63543881293845,
        "timestamp": "2025-12-12T14:39:16.770543+00:00",
        "meta_object_name": "STARLINK-35448",
        "meta_object_id": "2025-262K",
        "meta_epoch": "2025-12-12T08:00:13.999968",
        "meta_mean_motion": 15.40674592,
        "meta_eccentricity": 0.00011438,
        "meta_inclination": 43.0007,
        "meta_ra_of_asc_node": 73.6487,
        "meta_arg_of_pericenter": 266.8897,
        "meta_mean_anomaly": 272.7018,
        "meta_ephemeris_type": 0,
        "meta_classification_type": "U",
        "meta_norad_cat_id": 66465,
        "meta_element_set_no": 999,
        "meta_rev_at_epoch": 557,
        "meta_bstar": 0.0010312316,
        "meta_mean_motion_dot": 0.0004298,
        "meta_mean_motion_ddot": 0,
        "tle_line1": "1 66465U 25262K   25346.33349537  .00042980  00000+0  10312-2 0  9992",
        "tle_line2": "2 66465  43.0007  73.6487 0001143 266.8897 272.7018 15.40674592  5570"
      },
      "geometry": {
        "type": "Point",
        "coordinates": [
          -6.51112299654012,
          -42.40768296173132
        ]
      }
    },
    {
      "type": "Feature",
      "properties": {
        "norad_id": 66466,
        "name": "STARLINK-35388",
        "group": "last-30-days",
        "lat": -39.57242040817007,
        "lon": 9.534400396033526,
        "alt_km": 446.4612982043227,
        "timestamp": "2025-12-12T14:39:16.770552+00:00",
        "meta_object_name": "STARLINK-35388",
        "meta_object_id": "2025-262L",
        "meta_epoch": "2025-12-12T06:00:00.999648",
        "meta_mean_motion": 15.40630604,
        "meta_eccentricity": 0.00013917,
        "meta_inclination": 43.0005,
        "meta_ra_of_asc_node": 74.0971,
        "meta_arg_of_pericenter": 262.0115,
        "meta_mean_anomaly": 186.4811,
        "meta_ephemeris_type": 0,
        "meta_classification_type": "U",
        "meta_norad_cat_id": 66466,
        "meta_element_set_no": 999,
        "meta_rev_at_epoch": 556,
        "meta_bstar": 0.0019232573,
        "meta_mean_motion_dot": 0.00080703,
        "meta_mean_motion_ddot": 0,
        "tle_line1": "1 66466U 25262L   25346.25001157  .00080703  00000+0  19233-2 0  9993",
        "tle_line2": "2 66466  43.0005  74.0971 0001391 262.0115 186.4811 15.40630604  5565"
      },
      "geometry": {
        "type": "Point",
        "coordinates": [
          9.534400396033526,
          -39.57242040817007
        ]
      }
    },
    {
      "type": "Feature",
      "properties": {
        "norad_id": 66467,
        "name": "STARLINK-35682",
        "group": "last-30-days",
        "lat": -42.8546485833025,
        "lon": -23.289322034047817,
        "alt_km": 446.3815942677502,
        "timestamp": "2025-12-12T14:39:16.770562+00:00",
        "meta_object_name": "STARLINK-35682",
        "meta_object_id": "2025-262M",
        "meta_epoch": "2025-12-12T06:00:00.999648",
        "meta_mean_motion": 15.40742098,
        "meta_eccentricity": 0.00015987,
        "meta_inclination": 43.0006,
        "meta_ra_of_asc_node": 74.1593,
        "meta_arg_of_pericenter": 245.6927,
        "meta_mean_anomaly": 177.8882,
        "meta_ephemeris_type": 0,
        "meta_classification_type": "U",
        "meta_norad_cat_id": 66467,
        "meta_element_set_no": 999,
        "meta_rev_at_epoch": 555,
        "meta_bstar": -0.0014917593,
        "meta_mean_motion_dot": -0.000622,
        "meta_mean_motion_ddot": 0,
        "tle_line1": "1 66467U 25262M   25346.25001157 -.00062200  00000+0 -14918-2 0  9993",
        "tle_line2": "2 66467  43.0006  74.1593 0001598 245.6927 177.8882 15.40742098  5557"
      },
      "geometry": {
        "type": "Point",
        "coordinates": [
          -23.289322034047817,
          -42.8546485833025
        ]
      }
    }
  ]
}